ONEWEB-0597             
1 54663U 22166X   26157.61447181  .00000038  00000+0  61393-4 0  9990
2 54663  87.9257 246.0912 0002069  95.9708 264.1661 13.21826457170141
ONEWEB-0600             
1 54664U 22166Y   26157.52024806  .00000065  00000+0  12619-3 0  9992
2 54664  87.9255 246.1014 0001847  94.4679 265.6666 13.21828534170103
ONEWEB-0601             
1 54665U 22166Z   26157.66324252 -.00000003  00000+0 -39267-4 0  9999
2 54665  87.9256 246.0889 0002201  93.8254 266.3132 13.21824356170318
ONEWEB-0602             
1 54666U 22166AA  26157.62876251  .00000004  00000+0 -22542-4 0  9995
2 54666  87.9258 246.1017 0001855  93.2985 266.8361 13.21825433170152
ONEWEB-0603             
1 54667U 22166AB  26157.93744662 -.00000060  00000+0 -17717-3 0  9990
2 54667  87.9266 245.9963 0002031  96.3528 263.7837 13.21825839170124
ONEWEB-0604             
1 54668U 22166AC  26157.62287953  .00000010  00000+0 -65698-5 0  9999
2 54668  87.9267 246.0745 0001979 101.3999 258.7358 13.21827290170041
ONEWEB-0605             
1 54669U 22166AD  26157.54046084  .00000172  00000+0  38429-3 0  9997
2 54669  87.9262 246.1051 0002672  95.6550 264.4889 13.21826203170100
ONEWEB-0606             
1 54670U 22166AE  26157.94080926  .00000014  00000+0  27986-5 0  9999
2 54670  87.9256 246.0380 0001921 104.0736 256.0612 13.21825945170211
ONEWEB-0607             
1 54671U 22166AF  26157.60435404 -.00000260  00000+0 -66034-3 0  9998
2 54671  87.9265 246.0751 0001941  94.4732 265.6624 13.21825576170145
ONEWEB-0608             
1 54672U 22166AG  26157.53540654 -.00000056  00000+0 -16677-3 0  9996
2 54672  87.9266 246.0851 0002383  90.4345 269.7062 13.21827462170142
ONEWEB-0610             
1 54673U 22166AH  26157.66659625  .00000027  00000+0  34769-4 0  9999
2 54673  87.9257 246.0742 0002356  84.7789 275.3614 13.21827645170060
ONEWEB-0611             
1 54674U 22166AJ  26157.65987483  .00000038  00000+0  60459-4 0  9992
2 54674  87.9257 246.0720 0001967 102.9232 257.2122 13.21827168170052
ONEWEB-0612             
1 54675U 22166AK  26157.52194185  .00000051  00000+0  90947-4 0  9998
2 54675  87.9268 246.0935 0002134  96.0803 264.0574 13.21824521170021
ONEWEB-0615             
1 54676U 22166AL  26157.95594943  .00000011  00000+0 -59361-5 0  9995
2 54676  87.9262 246.0225 0001785 103.6684 256.4649 13.21825845170096
ONEWEB-0655             
1 54677U 22166AM  26157.93239859  .00000001  00000+0 -27988-4 0  9994
2 54677  87.9257 246.0288 0001885  92.7798 267.3552 13.21825880170087
ONEWEB-0659             
1 54678U 22166AN  26157.94921315 -.00002223  00000+0 -54162-2 0  9992
2 54678  87.9244 246.0244 0002029 100.3007 259.8356 13.21810746170179
ONEWEB-0685             
1 54679U 22166AP  26157.94946121  .00001756  00000+0  42188-2 0  9998
2 54679  87.9263 246.0175 0002127  87.2286 272.9091 13.21835376170061
ONEWEB-0712             
1 54680U 22166AQ  26157.64843538  .00000061  00000+0  12559-3 0  9993
2 54680  87.9109 230.8670 0001758  87.5989 272.5343 13.16593157170670
ONEWEB-0714             
1 54681U 22166AR  26157.95424008 -.00000268  00000+0 -67926-3 0  9994
2 54681  87.9217 246.0132 0001628  92.9650 267.1671 13.21839767170180
ONEWEB-0532             
1 55140U 23004A   26157.85789353  .00000008  00000+0 -12275-4 0  9992
2 55140  87.9142   7.9201 0002153  90.9469 269.1909 13.17647731166228
ONEWEB-0533             
1 55141U 23004B   26157.78420545 -.00000155  00000+0 -46559-3 0  9995
2 55141  87.8948 352.7398 0001908  83.2586 276.8760 13.12442172166690
ONEWEB-0541             
1 55142U 23004C   26157.65334187 -.00000580  00000+0 -16710-2 0  9995
2 55142  87.8907  23.1535 0001763  90.4616 269.6714 13.11417686164565
ONEWEB-0543             
1 55143U 23004D   26157.76878417 -.00000182  00000+0 -49497-3 0  9994
2 55143  87.9158 337.5439 0001683  86.5210 273.6115 13.18685345168321
ONEWEB-0544             
1 55144U 23004E   26157.76204756 -.00000072  00000+0 -21450-3 0  9991
2 55144  87.9157 337.5451 0001650  94.2257 265.9064 13.18685439168327
ONEWEB-0560             
1 55145U 23004F   26157.75530622  .00000049  00000+0  92273-4 0  9999
2 55145  87.9164 337.5360 0001531  91.9641 268.1666 13.18686509168337
ONEWEB-0565             
1 55146U 23004G   26157.74855301 -.00000066  00000+0 -20058-3 0  9995
2 55146  87.9147 337.5655 0001845 104.5827 255.5510 13.18685764168320
ONEWEB-0567             
1 55147U 23004H   26157.74181438  .00000011  00000+0 -42282-5 0  9993
2 55147  87.9157 337.5503 0001700 102.0493 258.0830 13.18685820168322
ONEWEB-0569             
1 55148U 23004J   26157.72414187 -.00000168  00000+0 -49409-3 0  9992
2 55148  87.8954 322.3030 0001162 119.6875 240.4370 13.13469593168803
ONEWEB-0570             
1 55149U 23004K   26157.73336784  .00000083  00000+0  17886-3 0  9998
2 55149  87.9155 337.5499 0002165  97.2829 262.8549 13.18685326168310
ONEWEB-0571             
1 55150U 23004L   26157.72663362 -.00001038  00000+0 -26664-2 0  9990
2 55150  87.9156 337.5507 0001765 129.0864 231.0425 13.18678388168323
