OBJECT_NAME,OBJECT_ID,EPOCH,MEAN_MOTION,ECCENTRICITY,INCLINATION,RA_OF_ASC_NODE,ARG_OF_PERICENTER,MEAN_ANOMALY,EPHEMERIS_TYPE,CLASSIFICATION_TYPE,NORAD_CAT_ID,ELEMENT_SET_NO,REV_AT_EPOCH,BSTAR,MEAN_MOTION_DOT,MEAN_MOTION_DDOT
ONEWEB-0597,2022-166X,2026-06-06T14:44:50.364384,13.21826457,.0002069,87.9257,246.0912,95.9708,264.1661,0,U,54663,999,17014,.61393487E-4,.38E-6,0
ONEWEB-0600,2022-166Y,2026-06-06T12:29:09.432384,13.21828534,.00018473,87.9255,246.1014,94.4679,265.6666,0,U,54664,999,17010,.12618701E-3,.65E-6,0
ONEWEB-0601,2022-166Z,2026-06-06T15:55:04.153728,13.21824356,.00022012,87.9256,246.0889,93.8254,266.3132,0,U,54665,999,17031,-.39266712E-4,-.3E-7,0
ONEWEB-0602,2022-166AA,2026-06-06T15:05:25.080864,13.21825433,.00018556,87.9258,246.1017,93.2985,266.8361,0,U,54666,999,17015,-.22541817E-4,.4E-7,0
ONEWEB-0603,2022-166AB,2026-06-06T22:29:55.387968,13.21825839,.00020314,87.9266,245.9963,96.3528,263.7837,0,U,54667,999,17012,-.1771738E-3,-.6E-6,0
ONEWEB-0604,2022-166AC,2026-06-06T14:56:56.791392,13.21827290,.00019793,87.9267,246.0745,101.3999,258.7358,0,U,54668,999,17004,-.6569841E-5,.1E-6,0
ONEWEB-0605,2022-166AD,2026-06-06T12:58:15.816576,13.21826203,.0002672,87.9262,246.1051,95.6550,264.4889,0,U,54669,999,17010,.38429E-3,.172E-5,0
ONEWEB-0606,2022-166AE,2026-06-06T22:34:45.920064,13.21825945,.00019219,87.9256,246.0380,104.0736,256.0612,0,U,54670,999,17021,.2798562E-5,.14E-6,0
ONEWEB-0607,2022-166AF,2026-06-06T14:30:16.189056,13.21825576,.00019417,87.9265,246.0751,94.4732,265.6624,0,U,54671,999,17014,-.66033734E-3,-.26E-5,0
ONEWEB-0608,2022-166AG,2026-06-06T12:50:59.125056,13.21827462,.0002383,87.9266,246.0851,90.4345,269.7062,0,U,54672,999,17014,-.16677E-3,-.56E-6,0
ONEWEB-0610,2022-166AH,2026-06-06T15:59:53.916000,13.21827645,.00023563,87.9257,246.0742,84.7789,275.3614,0,U,54673,999,17006,.34769045E-4,.27E-6,0
ONEWEB-0611,2022-166AJ,2026-06-06T15:50:13.185312,13.21827168,.0001967,87.9257,246.0720,102.9232,257.2122,0,U,54674,999,17005,.60459141E-4,.38E-6,0
ONEWEB-0612,2022-166AK,2026-06-06T12:31:35.775840,13.21824521,.00021343,87.9268,246.0935,96.0803,264.0574,0,U,54675,999,17002,.90946708E-4,.51E-6,0
ONEWEB-0615,2022-166AL,2026-06-06T22:56:34.030752,13.21825845,.00017852,87.9262,246.0225,103.6684,256.4649,0,U,54676,999,17009,-.5936073E-5,.11E-6,0
ONEWEB-0655,2022-166AM,2026-06-06T22:22:39.238176,13.21825880,.00018858,87.9257,246.0288,92.7798,267.3552,0,U,54677,999,17008,-.27987501E-4,.1E-7,0
ONEWEB-0659,2022-166AN,2026-06-06T22:46:52.016160,13.21810746,.00020297,87.9244,246.0244,100.3007,259.8356,0,U,54678,999,17017,-.54162097E-2,-.2223E-4,0
ONEWEB-0685,2022-166AP,2026-06-06T22:47:13.448544,13.21835376,.00021278,87.9263,246.0175,87.2286,272.9091,0,U,54679,999,17006,.42188262E-2,.1756E-4,0
ONEWEB-0712,2022-166AQ,2026-06-06T15:33:44.816832,13.16593157,.00017586,87.9109,230.8670,87.5989,272.5343,0,U,54680,999,17067,.12559294E-3,.61E-6,0
ONEWEB-0714,2022-166AR,2026-06-06T22:54:06.342912,13.21839767,.00016288,87.9217,246.0132,92.9650,267.1671,0,U,54681,999,17018,-.67926009E-3,-.268E-5,0
ONEWEB-0532,2023-004A,2026-06-06T20:35:22.000992,13.17647731,.00021532,87.9142,7.9201,90.9469,269.1909,0,U,55140,999,16622,-.12274683E-4,.8E-7,0
ONEWEB-0533,2023-004B,2026-06-06T18:49:15.350880,13.12442172,.00019084,87.8948,352.7398,83.2586,276.8760,0,U,55141,999,16669,-.46558751E-3,-.155E-5,0
ONEWEB-0541,2023-004C,2026-06-06T15:40:48.737568,13.11417686,.00017631,87.8907,23.1535,90.4616,269.6714,0,U,55142,999,16456,-.16710128E-2,-.58E-5,0
ONEWEB-0543,2023-004D,2026-06-06T18:27:02.952288,13.18685345,.00016831,87.9158,337.5439,86.5210,273.6115,0,U,55143,999,16832,-.49496576E-3,-.182E-5,0
ONEWEB-0544,2023-004E,2026-06-06T18:17:20.909184,13.18685439,.00016507,87.9157,337.5451,94.2257,265.9064,0,U,55144,999,16832,-.21449711E-3,-.72E-6,0
ONEWEB-0560,2023-004F,2026-06-06T18:07:38.457408,13.18686509,.00015318,87.9164,337.5360,91.9641,268.1666,0,U,55145,999,16833,.92273248E-4,.49E-6,0
ONEWEB-0565,2023-004G,2026-06-06T17:57:54.980064,13.18685764,.00018456,87.9147,337.5655,104.5827,255.5510,0,U,55146,999,16832,-.20057651E-3,-.66E-6,0
ONEWEB-0567,2023-004H,2026-06-06T17:48:12.762432,13.18685820,.00017003,87.9157,337.5503,102.0493,258.0830,0,U,55147,999,16832,-.4228165E-5,.11E-6,0
ONEWEB-0569,2023-004J,2026-06-06T17:22:45.857568,13.13469593,.00011621,87.8954,322.3030,119.6875,240.4370,0,U,55148,999,16880,-.49408795E-3,-.168E-5,0
ONEWEB-0570,2023-004K,2026-06-06T17:36:02.981376,13.18685326,.00021653,87.9155,337.5499,97.2829,262.8549,0,U,55149,999,16831,.17885994E-3,.83E-6,0
ONEWEB-0571,2023-004L,2026-06-06T17:26:21.144768,13.18678388,.00017655,87.9156,337.5507,129.0864,231.0425,0,U,55150,999,16832,-.26663693E-2,-.1038E-4,0
